start=new Date('2022-10-14T00:00:00.000Z').valueOf();
sats=[{"CENTER_NAME":"EARTH","LAUNCH_DATE":"2022-07-17","RA_OF_ASC_NODE":"353.1386","MEAN_ELEMENT_THEORY":"SGP4","NORAD_CAT_ID":"53144","TIME_SYSTEM":"UTC","MEAN_MOTION_DOT":"-0.00003713","APOAPSIS":"541.058","SITE":"AFETR","PERIAPSIS":"538.443","SEMIMAJOR_AXIS":"6917.886","REV_AT_EPOCH":"130","FILE":"3609636","OBJECT_ID":"2022-083N","EPHEMERIS_TYPE":"0","COUNTRY_CODE":"US","ARG_OF_PERICENTER":"28.9332","DECAY_DATE":null,"CLASSIFICATION_TYPE":"U","MEAN_MOTION_DDOT":"0.0000000000000","OBJECT_TYPE":"PAYLOAD","TLE_LINE1":"1 53144U 22083N   22286.91667824 -.00003713  00000-0 -21531-3 0  9996","INCLINATION":"53.2175","TLE_LINE2":"2 53144  53.2175 353.1386 0001890  28.9332 299.0298 15.08838287  1309","MEAN_ANOMALY":"299.0298","PERIOD":"95.438","RCS_SIZE":"LARGE","MEAN_MOTION":"15.08838287","OBJECT_NAME":"STARLINK-4100","BSTAR":"-0.00021531000000","EPOCH":"2022-10-13T22:00:00.999936","ELEMENT_SET_NO":"999","ECCENTRICITY":"0.00018900","GP_ID":"215029631","REF_FRAME":"TEME"},{"OBJECT_NAME":"STARLINK-4106","BSTAR":"-0.00009519600000","EPOCH":"2022-10-13T22:00:00.999936","RCS_SIZE":"LARGE","MEAN_MOTION":"15.08837258","GP_ID":"215029548","REF_FRAME":"TEME","ECCENTRICITY":"0.00018620","ELEMENT_SET_NO":"999","TLE_LINE1":"1 53145U 22083P   22286.91667824 -.00001803  00000-0 -95196-4 0  9994","OBJECT_TYPE":"PAYLOAD","INCLINATION":"53.2175","TLE_LINE2":"2 53145  53.2175 353.1385 0001862  37.7974  30.1660 15.08837258  1302","PERIOD":"95.438","MEAN_ANOMALY":"30.1660","REV_AT_EPOCH":"130","FILE":"3609636","OBJECT_ID":"2022-083P","EPHEMERIS_TYPE":"0","SITE":"AFETR","SEMIMAJOR_AXIS":"6917.889","PERIAPSIS":"538.466","CLASSIFICATION_TYPE":"U","DECAY_DATE":null,"MEAN_MOTION_DDOT":"0.0000000000000","COUNTRY_CODE":"US","ARG_OF_PERICENTER":"37.7974","MEAN_ELEMENT_THEORY":"SGP4","NORAD_CAT_ID":"53145","TIME_SYSTEM":"UTC","MEAN_MOTION_DOT":"-0.00001803","CENTER_NAME":"EARTH","LAUNCH_DATE":"2022-07-17","RA_OF_ASC_NODE":"353.1385","APOAPSIS":"541.042"},{"RA_OF_ASC_NODE":"353.1385","CENTER_NAME":"EARTH","LAUNCH_DATE":"2022-07-17","NORAD_CAT_ID":"53146","TIME_SYSTEM":"UTC","MEAN_MOTION_DOT":"-0.00003480","MEAN_ELEMENT_THEORY":"SGP4","APOAPSIS":"541.002","PERIAPSIS":"538.500","SEMIMAJOR_AXIS":"6917.886","SITE":"AFETR","OBJECT_ID":"2022-083Q","EPHEMERIS_TYPE":"0","REV_AT_EPOCH":"130","FILE":"3609636","ARG_OF_PERICENTER":"32.1204","COUNTRY_CODE":"US","MEAN_MOTION_DDOT":"0.0000000000000","CLASSIFICATION_TYPE":"U","DECAY_DATE":null,"TLE_LINE1":"1 53146U 22083Q   22286.91667824 -.00003480  00000-0 -20067-3 0  9992","OBJECT_TYPE":"PAYLOAD","PERIOD":"95.438","MEAN_ANOMALY":"315.8427","TLE_LINE2":"2 53146  53.2175 353.1385 0001808  32.1204 315.8427 15.08838108  1307","INCLINATION":"53.2175","RCS_SIZE":"LARGE","MEAN_MOTION":"15.08838108","EPOCH":"2022-10-13T22:00:00.999936","OBJECT_NAME":"STARLINK-4099","BSTAR":"-0.00020067000000","ECCENTRICITY":"0.00018080","ELEMENT_SET_NO":"999","REF_FRAME":"TEME","GP_ID":"215029381"},{"SITE":"AFETR","SEMIMAJOR_AXIS":"6917.889","PERIAPSIS":"538.445","FILE":"3609636","REV_AT_EPOCH":"130","OBJECT_ID":"2022-083R","EPHEMERIS_TYPE":"0","COUNTRY_CODE":"US","ARG_OF_PERICENTER":"23.4820","DECAY_DATE":null,"CLASSIFICATION_TYPE":"U","MEAN_MOTION_DDOT":"0.0000000000000","LAUNCH_DATE":"2022-07-17","CENTER_NAME":"EARTH","RA_OF_ASC_NODE":"353.1385","MEAN_ELEMENT_THEORY":"SGP4","NORAD_CAT_ID":"53147","TIME_SYSTEM":"UTC","MEAN_MOTION_DOT":"-0.00001429","APOAPSIS":"541.063","RCS_SIZE":"LARGE","MEAN_MOTION":"15.08837127","OBJECT_NAME":"STARLINK-4094","BSTAR":"-0.00007170400000","EPOCH":"2022-10-13T22:00:00.999936","ECCENTRICITY":"0.00018920","ELEMENT_SET_NO":"999","GP_ID":"215030372","REF_FRAME":"TEME","OBJECT_TYPE":"PAYLOAD","TLE_LINE1":"1 53147U 22083R   22286.91667824 -.00001429  00000-0 -71704-4 0  9999","INCLINATION":"53.2175","TLE_LINE2":"2 53147  53.2175 353.1385 0001892  23.4820  64.4815 15.08837127  1306","PERIOD":"95.438","MEAN_ANOMALY":"64.4815"},{"LAUNCH_DATE":"2022-07-17","CENTER_NAME":"EARTH","RA_OF_ASC_NODE":"353.1385","MEAN_ELEMENT_THEORY":"SGP4","TIME_SYSTEM":"UTC","NORAD_CAT_ID":"53148","MEAN_MOTION_DOT":"-0.00002248","APOAPSIS":"541.294","SITE":"AFETR","PERIAPSIS":"538.213","SEMIMAJOR_AXIS":"6917.888","REV_AT_EPOCH":"130","FILE":"3609636","OBJECT_ID":"2022-083S","EPHEMERIS_TYPE":"0","COUNTRY_CODE":"US","ARG_OF_PERICENTER":"28.6373","DECAY_DATE":null,"CLASSIFICATION_TYPE":"U","MEAN_MOTION_DDOT":"0.0000000000000","OBJECT_TYPE":"PAYLOAD","TLE_LINE1":"1 53148U 22083S   22286.91667824 -.00002248  00000-0 -12315-3 0  9992","INCLINATION":"53.2175","TLE_LINE2":"2 53148  53.2175 353.1385 0002227  28.6373  19.3261 15.08837438  1309","MEAN_ANOMALY":"19.3261","PERIOD":"95.438","RCS_SIZE":"LARGE","MEAN_MOTION":"15.08837438","OBJECT_NAME":"STARLINK-4066","BSTAR":"-0.00012315000000","EPOCH":"2022-10-13T22:00:00.999936","ELEMENT_SET_NO":"999","ECCENTRICITY":"0.00022270","GP_ID":"215029214","REF_FRAME":"TEME"},{"COUNTRY_CODE":"US","ARG_OF_PERICENTER":"50.5184","DECAY_DATE":null,"CLASSIFICATION_TYPE":"U","MEAN_MOTION_DDOT":"0.0000000000000","SITE":"AFETR","PERIAPSIS":"538.699","SEMIMAJOR_AXIS":"6917.890","FILE":"3609636","REV_AT_EPOCH":"130","OBJECT_ID":"2022-083T","EPHEMERIS_TYPE":"0","APOAPSIS":"540.810","LAUNCH_DATE":"2022-07-17","CENTER_NAME":"EARTH","RA_OF_ASC_NODE":"343.1384","MEAN_ELEMENT_THEORY":"SGP4","MEAN_MOTION_DOT":"-0.00001247","NORAD_CAT_ID":"53149","TIME_SYSTEM":"UTC","ECCENTRICITY":"0.00015260","ELEMENT_SET_NO":"999","GP_ID":"215029967","REF_FRAME":"TEME","MEAN_MOTION":"15.08836964","RCS_SIZE":"LARGE","BSTAR":"-0.00006029700000","OBJECT_NAME":"STARLINK-4021","EPOCH":"2022-10-13T22:00:00.999936","INCLINATION":"53.2175","TLE_LINE2":"2 53149  53.2175 343.1384 0001526  50.5184 352.4452 15.08836964  1309","MEAN_ANOMALY":"352.4452","PERIOD":"95.438","TLE_LINE1":"1 53149U 22083T   22286.91667824 -.00001247  00000-0 -60297-4 0  9994","OBJECT_TYPE":"PAYLOAD"},{"APOAPSIS":"541.182","MEAN_ELEMENT_THEORY":"SGP4","MEAN_MOTION_DOT":"0.00000114","NORAD_CAT_ID":"53150","TIME_SYSTEM":"UTC","CENTER_NAME":"EARTH","LAUNCH_DATE":"2022-07-17","RA_OF_ASC_NODE":"343.1384","DECAY_DATE":null,"CLASSIFICATION_TYPE":"U","MEAN_MOTION_DDOT":"0.0000000000000","COUNTRY_CODE":"US","ARG_OF_PERICENTER":"32.6232","REV_AT_EPOCH":"130","FILE":"3609636","EPHEMERIS_TYPE":"0","OBJECT_ID":"2022-083U","SITE":"AFETR","SEMIMAJOR_AXIS":"6917.891","PERIAPSIS":"538.329","TLE_LINE2":"2 53150  53.2175 343.1384 0002062  32.6232 150.3403 15.08836621  1303","INCLINATION":"53.2175","PERIOD":"95.438","MEAN_ANOMALY":"150.3403","OBJECT_TYPE":"PAYLOAD","TLE_LINE1":"1 53150U 22083U   22286.91667824  .00000114  00000-0  25285-4 0  9994","GP_ID":"215029799","REF_FRAME":"TEME","ECCENTRICITY":"0.00020620","ELEMENT_SET_NO":"999","BSTAR":"0.00002528500000","OBJECT_NAME":"STARLINK-4038","EPOCH":"2022-10-13T22:00:00.999936","MEAN_MOTION":"15.08836621","RCS_SIZE":"LARGE"},{"INCLINATION":"53.2176","TLE_LINE2":"2 53151  53.2176 343.1383 0001786  23.2741 219.6892 15.08837152  1308","MEAN_ANOMALY":"219.6892","PERIOD":"95.438","OBJECT_TYPE":"PAYLOAD","TLE_LINE1":"1 53151U 22083V   22286.91667824 -.00000769  00000-0 -30217-4 0  9994","GP_ID":"215030120","REF_FRAME":"TEME","ELEMENT_SET_NO":"999","ECCENTRICITY":"0.00017860","BSTAR":"-0.00003021700000","OBJECT_NAME":"STARLINK-4040","EPOCH":"2022-10-13T22:00:00.999936","MEAN_MOTION":"15.08837152","RCS_SIZE":"LARGE","APOAPSIS":"540.990","MEAN_ELEMENT_THEORY":"SGP4","MEAN_MOTION_DOT":"-0.00000769","NORAD_CAT_ID":"53151","TIME_SYSTEM":"UTC","CENTER_NAME":"EARTH","LAUNCH_DATE":"2022-07-17","RA_OF_ASC_NODE":"343.1383","CLASSIFICATION_TYPE":"U","DECAY_DATE":null,"MEAN_MOTION_DDOT":"0.0000000000000","COUNTRY_CODE":"US","ARG_OF_PERICENTER":"23.2741","REV_AT_EPOCH":"130","FILE":"3609636","EPHEMERIS_TYPE":"0","OBJECT_ID":"2022-083V","SITE":"AFETR","SEMIMAJOR_AXIS":"6917.889","PERIAPSIS":"538.519"},{"APOAPSIS":"541.079","LAUNCH_DATE":"2022-07-17","CENTER_NAME":"EARTH","RA_OF_ASC_NODE":"343.1384","MEAN_ELEMENT_THEORY":"SGP4","NORAD_CAT_ID":"53152","TIME_SYSTEM":"UTC","MEAN_MOTION_DOT":"-0.00000126","COUNTRY_CODE":"US","ARG_OF_PERICENTER":"42.2503","CLASSIFICATION_TYPE":"U","DECAY_DATE":null,"MEAN_MOTION_DDOT":"0.0000000000000","SITE":"AFETR","SEMIMAJOR_AXIS":"6917.890","PERIAPSIS":"538.431","FILE":"3609636","REV_AT_EPOCH":"130","EPHEMERIS_TYPE":"0","OBJECT_ID":"2022-083W","INCLINATION":"53.2175","TLE_LINE2":"2 53152  53.2175 343.1384 0001914  42.2503 160.7131 15.08836788  1305","MEAN_ANOMALY":"160.7131","PERIOD":"95.438","TLE_LINE1":"1 53152U 22083W   22286.91667824 -.00000126  00000-0  10181-4 0  9999","OBJECT_TYPE":"PAYLOAD","ELEMENT_SET_NO":"999","ECCENTRICITY":"0.00019140","GP_ID":"215029632","REF_FRAME":"TEME","RCS_SIZE":"LARGE","MEAN_MOTION":"15.08836788","OBJECT_NAME":"STARLINK-4045","BSTAR":"0.00001018100000","EPOCH":"2022-10-13T22:00:00.999936"},{"OBJECT_TYPE":"PAYLOAD","TLE_LINE1":"1 53153U 22083X   22286.91667824 -.00001063  00000-0 -48691-4 0  9999","PERIOD":"95.438","MEAN_ANOMALY":"225.8152","INCLINATION":"53.2176","TLE_LINE2":"2 53153  53.2176 343.1383 0001722  37.1481 225.8152 15.08837268  1301","RCS_SIZE":"LARGE","MEAN_MOTION":"15.08837268","EPOCH":"2022-10-13T22:00:00.999936","OBJECT_NAME":"STARLINK-4098","BSTAR":"-0.00004869100000","ECCENTRICITY":"0.00017220","ELEMENT_SET_NO":"999","REF_FRAME":"TEME","GP_ID":"215029549","RA_OF_ASC_NODE":"343.1383","CENTER_NAME":"EARTH","LAUNCH_DATE":"2022-07-17","TIME_SYSTEM":"UTC","NORAD_CAT_ID":"53153","MEAN_MOTION_DOT":"-0.00001063","MEAN_ELEMENT_THEORY":"SGP4","APOAPSIS":"540.945","PERIAPSIS":"538.562","SEMIMAJOR_AXIS":"6917.889","SITE":"AFETR","OBJECT_ID":"2022-083X","EPHEMERIS_TYPE":"0","FILE":"3609636","REV_AT_EPOCH":"130","ARG_OF_PERICENTER":"37.1481","COUNTRY_CODE":"US","MEAN_MOTION_DDOT":"0.0000000000000","DECAY_DATE":null,"CLASSIFICATION_TYPE":"U"}];
